NORAD_CAT_ID,OBJECT_NAME,OBJECT_TYPE,EPOCH,MEAN_MOTION,ECCENTRICITY,INCLINATION,RA_OF_ASC_NODE,ARG_OF_PERICENTER,MEAN_ANOMALY,BSTAR,MEAN_MOTION_DOT,MEAN_MOTION_DDOT,TLE_LINE0,TLE_LINE1,TLE_LINE2,SEMIMAJOR_AXIS,PERIOD,APOGEE,PERIGEE,DECAYED
52092.0,STARLINK-3716,PAYLOAD,2022-04-02 14:00:01,15.73346425,0.0001163,53.217,72.8944,68.4712,23.7923,-0.0027536,-0.00372762,0.0,0 STARLINK-3716,1 52092U 22029E   22092.58335648 -.00372762  00000-0 -27536-2 0  9994,2 52092  53.2170  72.8944 0001163  68.4712  23.7923 15.73346425  3527,6727.478,91.525,350.125,348.56,0.0
52092.0,STARLINK-3716,PAYLOAD,2022-04-02 22:00:01,15.73071337,0.000121,53.2174,71.2421,72.6604,108.5737,-0.0055833,-0.007167,0.0,0 STARLINK-3716,1 52092U 22029E   22092.91668981 -.00716700  00000-0 -55833-2 0  9995,2 52092  53.2174  71.2421 0001210  72.6604 108.5737 15.73071337  3571,6728.262,91.541,350.941,349.31300000000016,0.0
52092.0,STARLINK-3716,PAYLOAD,2022-04-03 22:00:00,15.71541561,0.0001077,53.2175,66.2983,74.9811,9.7394,-0.0059573,-0.00716262,0.0,0 STARLINK-3716,1 52092U 22029E   22093.91667824 -.00716262  00000-0 -59573-2 0  9999,2 52092  53.2175  66.2983 0001077  74.9811   9.7394 15.71541561  3733,6732.628000000002,91.63,355.218,353.76800000000014,0.0
52092.0,STARLINK-3716,PAYLOAD,2022-04-04 14:00:01,15.70524536,0.0001135,53.2173,63.0097,87.3027,170.0538,-0.0062719,-0.00721859,0.0,0 STARLINK-3716,1 52092U 22029E   22094.58334491 -.00721859  00000-0 -62719-2 0  9998,2 52092  53.2173  63.0097 0001135  87.3027 170.0538 15.70524536  3378,6735.534000000002,91.689,358.163,356.634,0.0
52092.0,STARLINK-3716,PAYLOAD,2022-04-04 22:00:00,15.70011901,0.0001063,53.2175,61.3659,82.9502,259.807,-0.0063538,-0.00716183,0.0,0 STARLINK-3716,1 52092U 22029E   22094.91667824 -.00716183  00000-0 -63538-2 0  9998,2 52092  53.2175  61.3659 0001063  82.9502 259.8070 15.70011901  3424,6737.0,91.719,359.581,358.149,0.0
52092.0,STARLINK-3716,PAYLOAD,2022-04-05 00:00:00,15.69827319,0.0001153,53.2172,60.9565,77.5983,16.4408,-0.0056525,-0.00638254,0.0,0 STARLINK-3716,1 52092U 22029E   22095.00001157 -.00638254  00000-0 -56525-2 0  9990,2 52092  53.2172  60.9565 0001153  77.5983  16.4408 15.69827319  3906,6737.528,91.73,360.17,358.616,0.0
52092.0,STARLINK-3716,PAYLOAD,2022-04-05 14:00:01,15.68994295,0.0001136,53.2174,58.0844,84.5535,67.2289,-0.0066742999999999,-0.00720661,0.0,0 STARLINK-3716,1 52092U 22029E   22095.58335648 -.00720661  00000-0 -66743-2 0  9995,2 52092  53.2174  58.0844 0001136  84.5535  67.2289 15.68994295  3535,6739.913000000001,91.779,362.543,361.012,0.0
52092.0,STARLINK-3716,PAYLOAD,2022-04-05 16:00:00,15.68865319,0.0001131,53.2177,57.6741,95.0324,167.6331,-0.0066834,-0.0071801999999999,0.0,0 STARLINK-3716,1 52092U 22029E   22095.66667824 -.00718020  00000-0 -66834-2 0  9995,2 52092  53.2177  57.6741 0001131  95.0324 167.6331 15.68865319  4007,6740.281999999997,91.786,362.909,361.385,0.0
52092.0,STARLINK-3716,PAYLOAD,2022-04-05 22:00:00,15.68483087,0.0001222,53.2177,56.4447,77.8264,157.4521,-0.0067806,-0.0071712,0.0,0 STARLINK-3716,1 52092U 22029E   22095.91667824 -.00717120  00000-0 -67806-2 0  9993,2 52092  53.2177  56.4447 0001222  77.8264 157.4521 15.68483087  3587,6741.377,91.808,364.066,362.418,0.0
52092.0,STARLINK-3716,PAYLOAD,2022-04-06 14:00:01,15.67462719,0.0001,53.2174,53.1707,88.1905,312.3721,-0.0070746,-0.0071737,0.0,0 STARLINK-3716,1 52092U 22029E   22096.58334491 -.00717370  00000-0 -70746-2 0  9992,2 52092  53.2174  53.1707 0001000  88.1905 312.3721 15.67462719  3692,6744.302,91.868,366.842,365.49300000000005,0.0
52092.0,STARLINK-3716,PAYLOAD,2022-04-06 20:00:01,15.67078505,0.0001016,53.2173,51.94300000000001,93.4216,278.4916,-0.0071555,-0.00714512,0.0,0 STARLINK-3716,1 52092U 22029E   22096.83334491 -.00714512  00000-0 -71555-2 0  9994,2 52092  53.2173  51.9430 0001016  93.4216 278.4916 15.67078505  4180,6745.405,91.891,367.955,366.584,0.0
52092.0,STARLINK-3716,PAYLOAD,2022-04-06 22:00:00,15.66951914,0.0001129,53.2175,51.5346,85.4954,36.7905,-0.0072028,-0.00715468,0.0,0 STARLINK-3716,1 52092U 22029E   22096.91667824 -.00715468  00000-0 -72028-2 0  9999,2 52092  53.2175  51.5346 0001129  85.4954  36.7905 15.66951914  3713,6745.768,91.898,368.395,366.871,0.0
52092.0,STARLINK-3716,PAYLOAD,2022-04-07 14:00:01,15.65935049,0.0001151,53.2175,48.2679,104.118,179.7739,-0.0075693,-0.00720967,0.0,0 STARLINK-3716,1 52092U 22029E   22097.58334491 -.00720967  00000-0 -75693-2 0  9995,2 52092  53.2175  48.2679 0001151 104.1180 179.7739 15.65935049  3724,6748.688,91.958,371.33,369.776,0.0
52092.0,STARLINK-3716,PAYLOAD,2022-04-07 20:00:01,15.65549911,0.000119,53.2176,47.0431,87.7382,166.1255,-0.0076248,-0.00715535,0.0,0 STARLINK-3716,1 52092U 22029E   22097.83334491 -.00715535  00000-0 -76248-2 0  9995,2 52092  53.2176  47.0431 0001190  87.7382 166.1255 15.65549911  4342,6749.795,91.98,372.463,370.856,0.0
52092.0,STARLINK-3716,PAYLOAD,2022-04-07 22:00:00,15.65423589,0.0001041,53.2178,46.6359,85.7687,278.0081,-0.0076884,-0.00717624,0.0,0 STARLINK-3716,1 52092U 22029E   22097.91667824 -.00717624  00000-0 -76884-2 0  9990,2 52092  53.2178  46.6359 0001041  85.7687 278.0081 15.65423589  3700,6750.158,91.988,372.725,371.32,0.0
52092.0,STARLINK-3716,PAYLOAD,2022-04-08 14:00:03,15.64402951,0.0001167,53.2175,43.37600000000001,95.2976,66.5404,-0.0079975,-0.00716659,0.0,0 STARLINK-3716,1 52092U 22029E   22098.58336806 -.00716659  00000-0 -79975-2 0  9998,2 52092  53.2175  43.3760 0001167  95.2976  66.5404 15.64402951  3712,6753.093000000003,92.048,375.746,374.17,0.0
52092.0,STARLINK-3716,PAYLOAD,2022-04-08 22:00:00,15.63892412,0.0001219,53.2176,41.7482,86.3231,153.4306,-0.0081444999999999,-0.00715273,0.0,0 STARLINK-3716,1 52092U 22029E   22098.91667824 -.00715273  00000-0 -81445-2 0  9998,2 52092  53.2176  41.7482 0001219  86.3231 153.4306 15.63892412  4519,6754.563,92.078,377.251,375.605,0.0
52092.0,STARLINK-3716,PAYLOAD,2022-04-09 14:00:01,15.62872001,0.0001026,53.2175,38.4959,109.101,284.9067,-0.0084744,-0.00714791,0.0,0 STARLINK-3716,1 52092U 22029E   22099.58334491 -.00714791  00000-0 -84744-2 0  9992,2 52092  53.2175  38.4959 0001026 109.1010 284.9067 15.62872001  3711,6757.503000000002,92.138,380.061,378.674,0.0
52092.0,STARLINK-3716,PAYLOAD,2022-04-09 22:00:00,15.62362785,0.0001128,53.2175,36.8717,86.3226,23.8925,-0.0086585,-0.00715773,0.0,0 STARLINK-3716,1 52092U 22029E   22099.91667824 -.00715773  00000-0 -86585-2 0  9994,2 52092  53.2175  36.8717 0001128  86.3226  23.8925 15.62362785  4675,6758.971,92.168,381.598,380.074,0.0
52092.0,STARLINK-3716,PAYLOAD,2022-04-10 14:00:01,15.61342847,0.0001212,53.2177,33.6264,103.7597,157.0326,-0.0090085,-0.00715637,0.0,0 STARLINK-3716,1 52092U 22029E   22100.58334491 -.00715637  00000-0 -90085-2 0  9990,2 52092  53.2177  33.6264 0001212 103.7597 157.0326 15.61342847  3713,6761.9140000000025,92.228,384.599,382.96,0.0
52092.0,STARLINK-3716,PAYLOAD,2022-04-10 20:00:01,15.60960548,0.0001252999999999,53.2177,32.4106,95.7779,130.8484,-0.0091299,-0.00714681,0.0,0 STARLINK-3716,1 52092U 22029E   22100.83334491 -.00714681  00000-0 -91299-2 0  9994,2 52092  53.2177  32.4106 0001253  95.7779 130.8484 15.60960548  4811,6763.018,92.251,385.731,384.036,0.0
52092.0,STARLINK-3716,PAYLOAD,2022-04-10 22:00:00,15.60833876,0.0001085,53.2177,32.0062,97.4823,237.6786,-0.0092087,-0.00717068,0.0,0 STARLINK-3716,1 52092U 22029E   22100.91667824 -.00717068  00000-0 -92087-2 0  9990,2 52092  53.2177  32.0062 0001085  97.4823 237.6786 15.60833876  3712,6763.384,92.258,385.983,384.515,0.0
52092.0,STARLINK-3716,PAYLOAD,2022-04-11 14:00:01,15.59810988,0.0001088,53.2173,28.7684,92.629,29.4335,-0.0095045,-0.00711915,0.0,0 STARLINK-3716,1 52092U 22029E   22101.58334491 -.00711915  00000-0 -95045-2 0  9997,2 52092  53.2173  28.7684 0001088  92.6290  29.4335 15.59810988  3701,6766.340999999999,92.319,388.942,387.469,0.0
52092.0,STARLINK-3716,PAYLOAD,2022-04-11 20:00:01,15.59429449,0.0001111,53.2174,27.5554,81.7404,4.7775,-0.0096637999999999,-0.00713214,0.0,0 STARLINK-3716,1 52092U 22029E   22101.83334491 -.00713214  00000-0 -96638-2 0  9998,2 52092  53.2174  27.5554 0001111  81.7404   4.7775 15.59429449  4970,6767.444,92.341,390.061,388.557,0.0
52092.0,STARLINK-3716,PAYLOAD,2022-04-11 22:00:00,15.59302154,0.0001256,53.2175,27.1518,83.7169,110.876,-0.00972,-0.00713846,0.0,0 STARLINK-3716,1 52092U 22029E   22101.91667824 -.00713846  00000-0 -97200-2 0  9993,2 52092  53.2175  27.1518 0001256  83.7169 110.8760 15.59302154  3691,6767.813,92.349,390.528,388.828,0.0
52092.0,STARLINK-3716,PAYLOAD,2022-04-12 14:00:01,15.582811499999998,0.0001103,53.2174,23.9212,109.551,228.2662,-0.010082,-0.00712276,0.0,0 STARLINK-3716,1 52092U 22029E   22102.58334491 -.00712276  00000-0 -10082-1 0  9996,2 52092  53.2174  23.9212 0001103 109.5510 228.2662 15.58281150  3701,6770.768,92.41,393.38,391.887,0.0
52092.0,STARLINK-3716,PAYLOAD,2022-04-12 20:00:01,15.57900804,0.0001183,53.2176,22.7112,97.8225,203.0705,-0.010265,-0.00714627,0.0,0 STARLINK-3716,1 52092U 22029E   22102.83334491 -.00714627  00000-0 -10265-1 0  9999,2 52092  53.2176  22.7112 0001183  97.8225 203.0705 15.57900804  5129,6771.87,92.432,394.537,392.934,0.0
52092.0,STARLINK-3716,PAYLOAD,2022-04-12 22:00:00,15.57773856,0.0001049,53.2176,22.3088,87.5729,320.9353,-0.010341,-0.00716291,0.0,0 STARLINK-3716,1 52092U 22029E   22102.91667824 -.00716291  00000-0 -10341-1 0  9991,2 52092  53.2176  22.3088 0001049  87.5729 320.9353 15.57773856  3696,6772.238,92.44,394.814,393.393,0.0
52092.0,STARLINK-3716,PAYLOAD,2022-04-13 14:00:03,15.5675112,0.0001195,53.2174,19.0849,93.8096,94.3768,-0.010662,-0.00711114,0.0,0 STARLINK-3716,1 52092U 22029E   22103.58336806 -.00711114  00000-0 -10662-1 0  9993,2 52092  53.2174  19.0849 0001195  93.8096  94.3768 15.56751120  3704,6775.204000000002,92.5,397.879,396.259,0.0
